ONEWEB-0371             
1 49297U 21090U   25281.47809775 -.00000237  00000+0 -62449-3 0  9999
2 49297  87.9274 355.0344 0001903 103.3320 256.8025 13.19724754193250
ONEWEB-0372             
1 49298U 21090V   25281.87604863  .00000037  00000+0  58244-4 0  9990
2 49298  87.9227 324.5614 0002170  94.5882 265.5499 13.20774217196662
ONEWEB-0373             
1 49299U 21090W   25281.59999753  .00000033  00000+0  48392-4 0  9994
2 49299  87.9229 324.6301 0001915  93.8169 266.3183 13.20773565197817
ONEWEB-0374             
1 49300U 21090X   25281.93004801  .00000189  00000+0  47483-3 0  9997
2 49300  87.9055 339.7429 0001500  83.2974 276.8326 13.14503459194551
ONEWEB-0375             
1 49301U 21090Y   25281.51161329 -.00004032  00000+0 -99487-2 0  9994
2 49301  87.9231 324.6273 0002221  69.5827 290.5545 13.20792846197302
ONEWEB-0376             
1 49302U 21090Z   25281.93143342  .00000111  00000+0  24586-3 0  9997
2 49302  87.9283 354.9281 0001767 107.3764 252.7563 13.19726276193319
ONEWEB-0377             
1 49303U 21090AA  25281.87633305 -.00000434  00000+0 -10999-2 0  9996
2 49303  87.9230 324.5510 0002165  93.4287 266.7094 13.20770339197340
ONEWEB-0378             
1 49304U 21090AB  25281.36813196  .00000181  00000+0  41309-3 0  9996
2 49304  87.9241 324.6668 0001820  91.9715 268.1627 13.20770725196542
